{
  "type": "FeatureCollection",
  "features": [
    {
      "type": "Feature",
      "geometry": {
        "type": "Point",
        "coordinates": [
          88.0833,
          22.0333
        ]
      },
      "properties": {
        "name": "Haldia Port",
        "category": "PORT",
        "state": "West Bengal",
        "district": "East Midnapore"
      }
    },
    {
      "type": "Feature",
      "geometry": {
        "type": "Point",
        "coordinates": [
          88.3128,
          22.5444
        ]
      },
      "properties": {
        "name": "Kolkata Port (Syama Prasad Mookerjee)",
        "category": "PORT",
        "state": "West Bengal",
        "district": "Kolkata"
      }
    },
    {
      "type": "Feature",
      "geometry": {
        "type": "Point",
        "coordinates": [
          86.68,
          20.26
        ]
      },
      "properties": {
        "name": "Paradip Port",
        "category": "PORT",
        "state": "Odisha",
        "district": "Jagatsinghpur"
      }
    },
    {
      "type": "Feature",
      "geometry": {
        "type": "Point",
        "coordinates": [
          86.9744,
          20.8033
        ]
      },
      "properties": {
        "name": "Dhamra Port",
        "category": "PORT",
        "state": "Odisha",
        "district": "Bhadrak"
      }
    },
    {
      "type": "Feature",
      "geometry": {
        "type": "Point",
        "coordinates": [
          83.2847,
          17.6975
        ]
      },
      "properties": {
        "name": "Visakhapatnam Port",
        "category": "PORT",
        "state": "Andhra Pradesh",
        "district": "Visakhapatnam"
      }
    },
    {
      "type": "Feature",
      "geometry": {
        "type": "Point",
        "coordinates": [
          80.2974,
          13.085
        ]
      },
      "properties": {
        "name": "Chennai Port",
        "category": "PORT",
        "state": "Tamil Nadu",
        "district": "Chennai"
      }
    },
    {
      "type": "Feature",
      "geometry": {
        "type": "Point",
        "coordinates": [
          70.2198,
          23.0033
        ]
      },
      "properties": {
        "name": "Kandla (Deendayal) Port",
        "category": "PORT",
        "state": "Gujarat",
        "district": "Kachchh"
      }
    },
    {
      "type": "Feature",
      "geometry": {
        "type": "Point",
        "coordinates": [
          72.95,
          18.95
        ]
      },
      "properties": {
        "name": "Jawaharlal Nehru Port (JNPT)",
        "category": "PORT",
        "state": "Maharashtra",
        "district": "Raigarh"
      }
    },
    {
      "type": "Feature",
      "geometry": {
        "type": "Point",
        "coordinates": [
          88.4467,
          22.6547
        ]
      },
      "properties": {
        "name": "Netaji Subhash Chandra Bose Intl Airport",
        "category": "AIRPORT",
        "state": "West Bengal",
        "district": "North 24 Parganas"
      }
    },
    {
      "type": "Feature",
      "geometry": {
        "type": "Point",
        "coordinates": [
          85.8178,
          20.2444
        ]
      },
      "properties": {
        "name": "Biju Patnaik International Airport",
        "category": "AIRPORT",
        "state": "Odisha",
        "district": "Khordha"
      }
    },
    {
      "type": "Feature",
      "geometry": {
        "type": "Point",
        "coordinates": [
          83.2245,
          17.7212
        ]
      },
      "properties": {
        "name": "Visakhapatnam International Airport",
        "category": "AIRPORT",
        "state": "Andhra Pradesh",
        "district": "Visakhapatnam"
      }
    },
    {
      "type": "Feature",
      "geometry": {
        "type": "Point",
        "coordinates": [
          80.1693,
          12.9941
        ]
      },
      "properties": {
        "name": "Chennai International Airport",
        "category": "AIRPORT",
        "state": "Tamil Nadu",
        "district": "Chennai"
      }
    },
    {
      "type": "Feature",
      "geometry": {
        "type": "Point",
        "coordinates": [
          72.8679,
          19.0896
        ]
      },
      "properties": {
        "name": "Chhatrapati Shivaji Maharaj Intl Airport",
        "category": "AIRPORT",
        "state": "Maharashtra",
        "district": "Mumbai Suburban"
      }
    },
    {
      "type": "Feature",
      "geometry": {
        "type": "Point",
        "coordinates": [
          88.3426,
          22.5385
        ]
      },
      "properties": {
        "name": "SSKM Hospital & IPGMER",
        "category": "HOSPITAL",
        "beds": 1775,
        "state": "West Bengal",
        "district": "Kolkata"
      }
    },
    {
      "type": "Feature",
      "geometry": {
        "type": "Point",
        "coordinates": [
          88.2045,
          21.8211
        ]
      },
      "properties": {
        "name": "Kakdwip Sub-Divisional Hospital (Coastal)",
        "category": "HOSPITAL",
        "beds": 250,
        "state": "West Bengal",
        "district": "South 24 Parganas"
      }
    },
    {
      "type": "Feature",
      "geometry": {
        "type": "Point",
        "coordinates": [
          87.9254,
          21.6266
        ]
      },
      "properties": {
        "name": "Digha State General Hospital",
        "category": "HOSPITAL",
        "beds": 150,
        "state": "West Bengal",
        "district": "East Midnapore"
      }
    },
    {
      "type": "Feature",
      "geometry": {
        "type": "Point",
        "coordinates": [
          85.7766,
          20.2312
        ]
      },
      "properties": {
        "name": "AIIMS Bhubaneswar",
        "category": "HOSPITAL",
        "beds": 960,
        "state": "Odisha",
        "district": "Khordha"
      }
    },
    {
      "type": "Feature",
      "geometry": {
        "type": "Point",
        "coordinates": [
          86.9324,
          21.4921
        ]
      },
      "properties": {
        "name": "Fakir Mohan Medical College & Hospital",
        "category": "HOSPITAL",
        "beds": 650,
        "state": "Odisha",
        "district": "Baleshwar"
      }
    },
    {
      "type": "Feature",
      "geometry": {
        "type": "Point",
        "coordinates": [
          86.5123,
          21.0543
        ]
      },
      "properties": {
        "name": "Bhadrak District Headquarters Hospital",
        "category": "HOSPITAL",
        "beds": 350,
        "state": "Odisha",
        "district": "Bhadrak"
      }
    },
    {
      "type": "Feature",
      "geometry": {
        "type": "Point",
        "coordinates": [
          85.8312,
          19.8134
        ]
      },
      "properties": {
        "name": "Puri District Headquarters Hospital",
        "category": "HOSPITAL",
        "beds": 420,
        "state": "Odisha",
        "district": "Puri"
      }
    },
    {
      "type": "Feature",
      "geometry": {
        "type": "Point",
        "coordinates": [
          83.3045,
          17.7123
        ]
      },
      "properties": {
        "name": "King George Hospital",
        "category": "HOSPITAL",
        "beds": 1200,
        "state": "Andhra Pradesh",
        "district": "Visakhapatnam"
      }
    },
    {
      "type": "Feature",
      "geometry": {
        "type": "LineString",
        "coordinates": [
          [
            88.3639,
            22.5726
          ],
          [
            87.9167,
            22.0
          ],
          [
            86.9324,
            21.4921
          ],
          [
            85.8178,
            20.2444
          ],
          [
            83.2245,
            17.7212
          ],
          [
            80.2707,
            13.0827
          ]
        ]
      },
      "properties": {
        "name": "NH-16 (Golden Quadrilateral Coastal Corridor)",
        "category": "HIGHWAY",
        "length_km": 1530.0
      }
    }
  ]
}